{
    "links": {
        "self": "http://www.neowsapp.com/rest/v1/neo/54073330?api_key=iIulBulltgU6a56xZRHN4H3l9WmuAYTsLGpBGhQ2"
    },
    "id": "54073330",
    "neo_reference_id": "54073330",
    "name": "(2020 TZ6)",
    "designation": "2020 TZ6",
    "nasa_jpl_url": "http://ssd.jpl.nasa.gov/sbdb.cgi?sstr=54073330",
    "absolute_magnitude_h": 23.77,
    "estimated_diameter": {
        "kilometers": {
            "estimated_diameter_min": 0.0468333233,
            "estimated_diameter_max": 0.1047224945
        },
        "meters": {
            "estimated_diameter_min": 46.8333233136,
            "estimated_diameter_max": 104.7224945415
        },
        "miles": {
            "estimated_diameter_min": 0.0291008689,
            "estimated_diameter_max": 0.0650715212
        },
        "feet": {
            "estimated_diameter_min": 153.6526404603,
            "estimated_diameter_max": 343.5777489915
        }
    },
    "is_potentially_hazardous_asteroid": false,
    "close_approach_data": [
        {
            "close_approach_date": "2020-10-25",
            "close_approach_date_full": "2020-Oct-25 00:03",
            "epoch_date_close_approach": 1603584180000,
            "relative_velocity": {
                "kilometers_per_second": "24.183806763",
                "kilometers_per_hour": "87061.7043467611",
                "miles_per_hour": "54096.7573481305"
            },
            "miss_distance": {
                "astronomical": "0.0839585881",
                "lunar": "32.6598907709",
                "kilometers": "12560025.947967347",
                "miles": "7804438.2274575086"
            },
            "orbiting_body": "Earth"
        }
    ],
    "orbital_data": {
        "orbit_id": "2",
        "orbit_determination_date": "2020-10-20 07:20:11",
        "first_observation_date": "2020-10-12",
        "last_observation_date": "2020-10-20",
        "data_arc_in_days": 8,
        "observations_used": 16,
        "orbit_uncertainty": "9",
        "minimum_orbit_intersection": ".0756197",
        "jupiter_tisserand_invariant": "2.840",
        "epoch_osculation": "2459136.5",
        "eccentricity": ".8132427428012062",
        "semi_major_axis": "2.569627728172756",
        "inclination": "4.990738371175079",
        "ascending_node_longitude": "329.1227800635147",
        "orbital_period": "1504.540011680968",
        "perihelion_distance": ".4798966265355115",
        "perihelion_argument": "159.6459288388218",
        "aphelion_distance": "4.65935882981",
        "perihelion_time": "2459191.422522994574",
        "mean_anomaly": "346.858369917357",
        "mean_motion": ".2392757900787132",
        "equinox": "J2000",
        "orbit_class": {
            "orbit_class_type": "APO",
            "orbit_class_description": "Near-Earth asteroid orbits which cross the Earth’s orbit similar to that of 1862 Apollo",
            "orbit_class_range": "a (semi-major axis) > 1.0 AU; q (perihelion) < 1.017 AU"
        }
    },
    "is_sentry_object": false
}